[{"OBJECT_NAME":"SL-8 R/B","OBJECT_ID":"1988-053B","EPOCH":"2026-03-24T22:37:42.701376","MEAN_MOTION":14.38925984,"ECCENTRICITY":0.002151,"INCLINATION":74.0451,"RA_OF_ASC_NODE":84.3472,"ARG_OF_PERICENTER":261.6255,"MEAN_ANOMALY":112.6291,"EPHEMERIS_TYPE":0,"CLASSIFICATION_TYPE":"U","NORAD_CAT_ID":19257,"ELEMENT_SET_NO":999,"REV_AT_EPOCH":97879,"BSTAR":0.00011042708,"MEAN_MOTION_DOT":3.15e-6,"MEAN_MOTION_DDOT":0},{"OBJECT_NAME":"COSMOS 1975","OBJECT_ID":"1988-093A","EPOCH":"2026-03-24T18:50:39.061248","MEAN_MOTION":15.28268069,"ECCENTRICITY":0.00132578,"INCLINATION":82.5168,"RA_OF_ASC_NODE":102.5263,"ARG_OF_PERICENTER":114.7744,"MEAN_ANOMALY":245.4876,"EPHEMERIS_TYPE":0,"CLASSIFICATION_TYPE":"U","NORAD_CAT_ID":19573,"ELEMENT_SET_NO":999,"REV_AT_EPOCH":2171,"BSTAR":0.00022903387,"MEAN_MOTION_DOT":6.355e-5,"MEAN_MOTION_DDOT":0},{"OBJECT_NAME":"SL-14 R/B","OBJECT_ID":"1988-093B","EPOCH":"2026-03-24T22:51:53.278272","MEAN_MOTION":14.85674132,"ECCENTRICITY":0.00204552,"INCLINATION":82.5334,"RA_OF_ASC_NODE":27.7174,"ARG_OF_PERICENTER":352.2312,"MEAN_ANOMALY":77.6785,"EPHEMERIS_TYPE":0,"CLASSIFICATION_TYPE":"U","NORAD_CAT_ID":19574,"ELEMENT_SET_NO":999,"REV_AT_EPOCH":328,"BSTAR":6.2878513e-5,"MEAN_MOTION_DOT":5.71e-6,"MEAN_MOTION_DDOT":0},{"OBJECT_NAME":"SL-16 R/B","OBJECT_ID":"1988-102B","EPOCH":"2026-03-24T09:14:28.709664","MEAN_MOTION":14.16154852,"ECCENTRICITY":0.00149328,"INCLINATION":70.998,"RA_OF_ASC_NODE":120.5774,"ARG_OF_PERICENTER":339.1,"MEAN_ANOMALY":20.9511,"EPHEMERIS_TYPE":0,"CLASSIFICATION_TYPE":"U","NORAD_CAT_ID":19650,"ELEMENT_SET_NO":999,"REV_AT_EPOCH":92897,"BSTAR":-9.6128982e-5,"MEAN_MOTION_DOT":-2.38e-6,"MEAN_MOTION_DDOT":0},{"OBJECT_NAME":"INTERCOSMOS 24","OBJECT_ID":"1989-080A","EPOCH":"2026-03-24T23:22:26.580864","MEAN_MOTION":12.59577863,"ECCENTRICITY":0.11867753,"INCLINATION":82.6011,"RA_OF_ASC_NODE":94.4481,"ARG_OF_PERICENTER":257.3101,"MEAN_ANOMALY":89.3035,"EPHEMERIS_TYPE":0,"CLASSIFICATION_TYPE":"U","NORAD_CAT_ID":20261,"ELEMENT_SET_NO":999,"REV_AT_EPOCH":66872,"BSTAR":0.00015857228,"MEAN_MOTION_DOT":5.35e-6,"MEAN_MOTION_DDOT":0},{"OBJECT_NAME":"SL-14 R/B","OBJECT_ID":"1989-080C","EPOCH":"2026-03-24T22:04:02.222688","MEAN_MOTION":12.50508621,"ECCENTRICITY":0.12308728,"INCLINATION":82.5963,"RA_OF_ASC_NODE":163.4136,"ARG_OF_PERICENTER":149.9548,"MEAN_ANOMALY":217.8395,"EPHEMERIS_TYPE":0,"CLASSIFICATION_TYPE":"U","NORAD_CAT_ID":20262,"ELEMENT_SET_NO":999,"REV_AT_EPOCH":66205,"BSTAR":0.00012010765,"MEAN_MOTION_DOT":4.25e-6,"MEAN_MOTION_DDOT":0},{"OBJECT_NAME":"DELTA 1 R/B","OBJECT_ID":"1989-089B","EPOCH":"2026-03-24T19:05:26.975040","MEAN_MOTION":14.50675013,"ECCENTRICITY":0.00706528,"INCLINATION":97.0694,"RA_OF_ASC_NODE":288.8302,"ARG_OF_PERICENTER":75.2061,"MEAN_ANOMALY":285.6951,"EPHEMERIS_TYPE":0,"CLASSIFICATION_TYPE":"U","NORAD_CAT_ID":20323,"ELEMENT_SET_NO":999,"REV_AT_EPOCH":89792,"BSTAR":8.4157825e-5,"MEAN_MOTION_DOT":3.06e-6,"MEAN_MOTION_DDOT":0},{"OBJECT_NAME":"ARIANE 40 R/B","OBJECT_ID":"1990-005H","EPOCH":"2026-03-24T14:45:43.701696","MEAN_MOTION":14.39879899,"ECCENTRICITY":0.00107795,"INCLINATION":98.3052,"RA_OF_ASC_NODE":143.8296,"ARG_OF_PERICENTER":154.27,"MEAN_ANOMALY":205.9027,"EPHEMERIS_TYPE":0,"CLASSIFICATION_TYPE":"U","NORAD_CAT_ID":20443,"ELEMENT_SET_NO":999,"REV_AT_EPOCH":89495,"BSTAR":9.6955588e-5,"MEAN_MOTION_DOT":2.63e-6,"MEAN_MOTION_DDOT":0},{"OBJECT_NAME":"DELTA 2 R/B(1)","OBJECT_ID":"1990-008B","EPOCH":"2026-03-23T06:57:55.734624","MEAN_MOTION":15.57716328,"ECCENTRICITY":0.00799445,"INCLINATION":35.6034,"RA_OF_ASC_NODE":85.4758,"ARG_OF_PERICENTER":25.1791,"MEAN_ANOMALY":335.2813,"EPHEMERIS_TYPE":0,"CLASSIFICATION_TYPE":"U","NORAD_CAT_ID":20453,"ELEMENT_SET_NO":999,"REV_AT_EPOCH":92825,"BSTAR":0.00082028965,"MEAN_MOTION_DOT":0.00073697,"MEAN_MOTION_DDOT":0},{"OBJECT_NAME":"COSMOS 2058","OBJECT_ID":"1990-010A","EPOCH":"2026-03-24T22:36:08.232480","MEAN_MOTION":15.11453098,"ECCENTRICITY":0.00074725,"INCLINATION":82.4683,"RA_OF_ASC_NODE":32.3981,"ARG_OF_PERICENTER":285.9134,"MEAN_ANOMALY":74.1272,"EPHEMERIS_TYPE":0,"CLASSIFICATION_TYPE":"U","NORAD_CAT_ID":20465,"ELEMENT_SET_NO":999,"REV_AT_EPOCH":94454,"BSTAR":0.00025371525,"MEAN_MOTION_DOT":4.319e-5,"MEAN_MOTION_DDOT":0},{"OBJECT_NAME":"SL-14 R/B","OBJECT_ID":"1990-010B","EPOCH":"2026-03-24T22:18:51.997536","MEAN_MOTION":14.83582038,"ECCENTRICITY":0.0018428,"INCLINATION":82.4991,"RA_OF_ASC_NODE":253.0688,"ARG_OF_PERICENTER":248.0989,"MEAN_ANOMALY":111.8267,"EPHEMERIS_TYPE":0,"CLASSIFICATION_TYPE":"U","NORAD_CAT_ID":20466,"ELEMENT_SET_NO":999,"REV_AT_EPOCH":93074,"BSTAR":5.383284e-5,"MEAN_MOTION_DOT":4.68e-6,"MEAN_MOTION_DDOT":0},{"OBJECT_NAME":"SL-14 R/B","OBJECT_ID":"1990-018B","EPOCH":"2026-03-24T14:59:31.893216","MEAN_MOTION":14.82159292,"ECCENTRICITY":0.00172235,"INCLINATION":82.523,"RA_OF_ASC_NODE":209.1321,"ARG_OF_PERICENTER":46.6416,"MEAN_ANOMALY":313.6229,"EPHEMERIS_TYPE":0,"CLASSIFICATION_TYPE":"U","NORAD_CAT_ID":20511,"ELEMENT_SET_NO":999,"REV_AT_EPOCH":92479,"BSTAR":5.501626e-5,"MEAN_MOTION_DOT":4.63e-6,"MEAN_MOTION_DDOT":0},{"OBJECT_NAME":"HST","OBJECT_ID":"1990-037B","EPOCH":"2026-03-24T21:12:41.773248","MEAN_MOTION":15.2971221,"ECCENTRICITY":0.00015023,"INCLINATION":28.472,"RA_OF_ASC_NODE":296.3339,"ARG_OF_PERICENTER":302.0996,"MEAN_ANOMALY":57.9454,"EPHEMERIS_TYPE":0,"CLASSIFICATION_TYPE":"U","NORAD_CAT_ID":20580,"ELEMENT_SET_NO":999,"REV_AT_EPOCH":77564,"BSTAR":0.00022149679,"MEAN_MOTION_DOT":6.792e-5,"MEAN_MOTION_DDOT":0},{"OBJECT_NAME":"SL-16 R/B","OBJECT_ID":"1990-046B","EPOCH":"2026-03-24T23:11:57.229440","MEAN_MOTION":14.15013575,"ECCENTRICITY":0.00162885,"INCLINATION":70.9953,"RA_OF_ASC_NODE":265.827,"ARG_OF_PERICENTER":279.6356,"MEAN_ANOMALY":80.2926,"EPHEMERIS_TYPE":0,"CLASSIFICATION_TYPE":"U","NORAD_CAT_ID":20625,"ELEMENT_SET_NO":999,"REV_AT_EPOCH":85055,"BSTAR":0.00011680816,"MEAN_MOTION_DOT":1.79e-6,"MEAN_MOTION_DDOT":0},{"OBJECT_NAME":"COSMOS 2084","OBJECT_ID":"1990-055A","EPOCH":"2026-03-24T22:19:50.758176","MEAN_MOTION":15.05730685,"ECCENTRICITY":0.00146933,"INCLINATION":62.7893,"RA_OF_ASC_NODE":283.593,"ARG_OF_PERICENTER":194.4805,"MEAN_ANOMALY":165.5877,"EPHEMERIS_TYPE":0,"CLASSIFICATION_TYPE":"U","NORAD_CAT_ID":20663,"ELEMENT_SET_NO":999,"REV_AT_EPOCH":93861,"BSTAR":0.00017206779,"MEAN_MOTION_DOT":2.305e-5,"MEAN_MOTION_DDOT":0},{"OBJECT_NAME":"SL-6 R/B(2)","OBJECT_ID":"1990-055D","EPOCH":"2026-03-24T14:26:06.892224","MEAN_MOTION":15.0366477,"ECCENTRICITY":0.00272448,"INCLINATION":62.783,"RA_OF_ASC_NODE":203.1371,"ARG_OF_PERICENTER":350.4966,"MEAN_ANOMALY":9.5614,"EPHEMERIS_TYPE":0,"CLASSIFICATION_TYPE":"U","NORAD_CAT_ID":20666,"ELEMENT_SET_NO":999,"REV_AT_EPOCH":94043,"BSTAR":0.00016678282,"MEAN_MOTION_DOT":2.11e-5,"MEAN_MOTION_DDOT":0},{"OBJECT_NAME":"SL-8 R/B","OBJECT_ID":"1990-078B","EPOCH":"2026-03-24T21:27:01.623456","MEAN_MOTION":14.8953099,"ECCENTRICITY":0.03591279,"INCLINATION":82.9019,"RA_OF_ASC_NODE":237.6291,"ARG_OF_PERICENTER":322.7617,"MEAN_ANOMALY":34.9173,"EPHEMERIS_TYPE":0,"CLASSIFICATION_TYPE":"U","NORAD_CAT_ID":20775,"ELEMENT_SET_NO":999,"REV_AT_EPOCH":81156,"BSTAR":0.00038535069,"MEAN_MOTION_DOT":0.00013022,"MEAN_MOTION_DDOT":0}]
